ONEWEB-0238
1 48784U 21045T   23342.73888076  .00000104  00000-0  24177-3 0  9993
2 48784  87.9016  82.6464 0001866 106.0962 254.0374 13.15541665123221
ONEWEB-0240
1 48785U 21045U   23342.67163497  .00000073  00000-0  15870-3 0  9995
2 48785  87.9005  82.6252 0001738 121.0190 239.1111 13.15547140123242
ONEWEB-0246
1 48786U 21045V   23342.74289650 -.00001468  00000-0 -39339-2 0  9990
2 48786  87.9002  82.6127 0002238 108.4790 251.6584 13.15539262123128
ONEWEB-0210
1 48787U 21045W   23342.64146867  .00000012  00000-0 -32136-5 0  9996
2 48787  87.9002  82.6410 0000875 112.5198 247.6025 13.15550208123158
ONEWEB-0214
1 48788U 21045X   23342.34675196  .00000067  00000-0  14509-3 0  9997
2 48788  87.9007  82.6891 0001856 121.2346 238.8966 13.15548547123080
ONEWEB-0221
1 48789U 21045Y   23342.73337185  .00000090  00000-0  20493-3 0  9999
2 48789  87.9003  82.6233 0001745 118.1435 241.9871 13.15549932123223
ONEWEB-0213
1 48790U 21045Z   23343.17862472  .00000035  00000-0  59941-4 0  9992
2 48790  87.9012  82.5539 0001885 124.2666 235.8643 13.15549557124472
ONEWEB-0212
1 48791U 21045AA  23341.56349490  .00058249  00000-0  15266+0 0  9991
2 48791  87.9003  82.8551 0002546 100.3030 259.8388 13.16016667123120
ONEWEB-0227
1 48792U 21045AB  23342.69851589 -.00000126  00000-0 -36984-3 0  9991
2 48792  87.8992  82.6417 0001585 102.8796 257.2512 13.15551443123221
ONEWEB-0226
1 48793U 21045AC  23342.69216925 -.00000084  00000-0 -25749-3 0  9991
2 48793  87.9001  82.6527 0001166 123.2256 236.8987 13.15550199123191
ONEWEB-0224
1 48794U 21045AD  23342.73178792  .00000090  00000-0  20386-3 0  9993
2 48794  87.9021  82.6575 0002250 113.5143 246.6224 13.15548497123123
ONEWEB-0233
1 48795U 21045AE  23341.35562519  .00000342  00000-0  87521-3 0  9999
2 48795  87.8955  82.9535 0001764 102.0747 258.0581 13.15546136122951
ONEWEB-0190
1 48796U 21045AF  23342.34356929  .00000087  00000-0  19624-3 0  9991
2 48796  87.8994  82.7148 0003213 141.7657 218.3702 13.15550307123167
ONEWEB-0236
1 48797U 21045AG  23342.74130934  .00000126  00000-0  30165-3 0  9999
2 48797  87.9011  82.6183 0001636 108.6755 251.4553 13.15548531123107
ONEWEB-0248
1 48798U 21045AH  23342.67790612  .00000027  00000-0  36787-4 0  9994
2 48798  87.9004  82.6383 0001978 131.8520 228.2780 13.15549159123256
ONEWEB-0225
1 48799U 21045AJ  23342.70009015 -.00000155  00000-0 -44520-3 0  9996
2 48799  87.8997  82.6418 0001641 124.5538 235.5747 13.15548279123268
ONEWEB-0215
1 48800U 21045AK  23342.74604682  .00000117  00000-0  27641-3 0  9995
2 48800  87.8997  82.6117 0001844 141.2706 218.8557 13.15548678123148
ONEWEB-0216
1 48801U 21045AL  23342.37526308  .00000873  00000-0  22843-2 0  9990
2 48801  87.8999  82.7244 0001100  91.5021 268.6235 13.15542652123103
ONEWEB-0239
1 48802U 21045AM  23342.68424760 -.00000072  00000-0 -22446-3 0  9997
2 48802  87.9010  82.6220 0001945 136.2954 223.8330 13.15549643123185
FENGYUN 4B
1 48808U 21047A   23343.15770653 -.00000292  00000-0  00000+0 0  9994
2 48808   0.0562 307.2708 0003842 104.7401 215.4237  1.00278324  9329
THOR ABLESTAR DEB
1 48810U 61015MN  23342.07841670  .00000044  00000-0  92116-4 0  9992
2 48810  66.8556 359.6062 0128504  40.7389 352.7768 13.89021394509272
THOR ABLESTAR DEB
1 48811U 61015MP  23342.74169064  .00000311  00000-0  36274-3 0  9996
2 48811  67.0614  17.8013 0098822 103.0676 258.1451 13.78821167505549
THOR ABLESTAR DEB *
1 48812U 61015MQ  23342.68572663  .00000058  00000-0  61614-3 0  9997
2 48812  67.3191  74.7278 0352909 217.5979 139.9875 12.43559551458532
THOR ABLESTAR DEB
1 48813U 61015MR  23340.36104460  .00001389  00000-0  24376-2 0  9998
2 48813  66.6536 311.7739 0455910 100.1985 265.0779 13.11430422 88730
THOR ABLESTAR DEB
1 48814U 61015MS  23342.70227007  .00002378  00000-0  20312-2 0  9997
2 48814  65.9133  56.6515 0034023 260.6355  99.0868 13.88652280201243
THOR ABLESTAR DEB
1 48815U 61015MT  23337.07873442  .00014122  00000-0  41980-2 0  9996
2 48815  65.8241 187.1554 0034688 219.1434 140.7154 14.42996719516745
THOR ABLESTAR DEB
1 48816U 61015MU  23334.71223310  .00002744  00000-0  16601-2 0  9997
2 48816  66.8121  74.3015 0100295 145.3434 215.4243 14.05461642515054
THOR ABLESTAR DEB
1 48817U 61015MV  23342.96118988  .00000163  00000-0  16887-3 0  9998
2 48817  65.8400 179.0490 0215696 320.3207  38.2248 13.89065488509260
THOR ABLESTAR DEB
1 48819U 61015MX  23340.07992672  .00000282  00000-0  30972-3 0  9993
2 48819  66.5361 216.7559 0031241 315.2250  44.6303 13.86376785508066
THOR ABLESTAR DEB
1 48820U 61015MY  23337.57014094  .00001179  00000-0  13791-2 0  9994
2 48820  65.8513  46.4948 0145040 255.1346 103.3611 13.67795086501741
THOR ABLESTAR DEB
1 48821U 61015MZ  23321.12586917  .00000219  00000-0  71301-3 0  9993
2 48821  67.9324 102.0181 0513396  65.6051 299.7661 12.76654695434001
THOR ABLESTAR DEB
1 48822U 61015NA  23336.94648321  .00000370  00000-0  25968-3 0  9994
2 48822  66.7149 174.0986 0122574 315.0405  44.0804 14.05322735105955
THOR ABLESTAR DEB
1 48823U 61015NB  23338.29705791  .00001960  00000-0  68160-3 0  9997
2 48823  66.6587 285.4144 0113862  24.1504 336.4874 14.33999760524827
THOR ABLESTAR DEB
1 48824U 61015NC  23340.72673176  .00000229  00000-0  19218-3 0  9997
2 48824  67.0056  59.6418 0099401 258.0635 100.9293 14.02061152513721
THOR ABLESTAR DEB
1 48825U 61015ND  23340.58890484  .00008640  00000-0  31189-2 0  9990
2 48825  65.8033 326.2743 0044542 267.9993  91.5998 14.33437354521292
THOR ABLESTAR DEB
1 48826U 61015NE  23342.25169278  .00001177  00000-0  49510-3 0  9993
2 48826  66.5968 267.9799 0059199 278.4529 158.0134 14.28394207522774
THOR ABLESTAR DEB
1 48827U 61015NF  23338.64079029  .00000652  00000-0  10749-2 0  9994
2 48827  68.1605 335.0717 0354987 216.3668 141.2795 13.29829072486719
THOR ABLESTAR DEB
1 48828U 61015NG  23342.68639464  .00000099  00000-0  13262-3 0  9998
2 48828  66.7607 223.4981 0054936  43.3500 349.4566 13.93511479511013
THOR ABLESTAR DEB
1 48829U 61015NH  23335.01695580  .00010268  00000-0  33649-2 0  9998
2 48829  65.8745 192.1607 0080803 214.2941 145.2923 14.36863603524250
THOR ABLESTAR DEB
1 48830U 61015NJ  23341.04730766  .00000583  00000-0  48462-3 0  9995
2 48830  66.9014 115.3841 0016908 193.3527 166.7110 13.95511089477101
FALCON 9 DEB
1 48837U 21041BL  23342.07931342  .00002448  00000-0  20963-3 0  9992
2 48837  53.0327 284.2397 0013608 217.3431 142.6610 15.01133796137812
XM-8
1 48838U 21049A   23341.61025160 -.00000178  00000-0  00000-0 0  9998
2 48838   0.0171 296.2836 0001892  78.7307 195.5930  1.00271187  9356
FALCON 9 R/B
1 48839U 21049B   23342.66070727  .00016667  00000-0  10623-2 0  9997
2 48839  27.0624  82.8583 5631139  51.1419 346.8917  4.66138480 40505
OBJECT A
1 48840U 21050A   23343.17285983  .00032688  00000-0  41357-3 0  9990
2 48840  97.4303  73.3753 0004439 251.4118 108.6656 15.59443196139677
OBJECT B
1 48841U 21050B   23343.17638662  .00024261  00000-0  48974-3 0  9997
2 48841  97.4266  67.4685 0006561 287.8297  72.2236 15.46488268139296
OBJECT C
1 48842U 21050C   23343.19639733  .00083195  00000-0  71941-3 0  9991
2 48842  97.4272  72.8005 0006427 261.3694  98.6839 15.68914004139634
OBJECT D
1 48843U 21050D   23343.18197826  .00006963  00000-0  27735-3 0  9993
2 48843  97.4237  58.5568 0018309 118.2055 242.1034 15.25391318138726
PEGASUS R/B
1 48845U 21051B   23331.64572376  .12582055  27439-5  13582-3 0  9990
2 48845  97.5052 303.5197 0005217 249.6849 230.5723 16.50650923139804
MINOTAUR 1 R/B
1 48849U 21052D   23342.50209794  .00001159  00000-0  13503-3 0  9994
2 48849  54.9919  60.1290 0005196 214.0814 145.9860 14.92600717 38079
NAVSTAR 81 (USA 319)
1 48859U 21054A   23342.22162003 -.00000072  00000-0  00000-0 0  9996
2 48859  55.3524   9.4239 0014286 222.0737 199.2294  2.00568647 18262
YAOGAN-30 AA
1 48860U 21055A   23343.12547642  .00002371  00000-0  22295-3 0  9991
2 48860  34.9974 329.9571 0005532 317.0604  42.9669 14.93599687134955
YAOGAN-30 AB
1 48861U 21055B   23343.10308251  .00002331  00000-0  21899-3 0  9996
2 48861  34.9968 329.7403 0004908 337.3281  22.7207 14.93635376134931
CZ-2C R/B
1 48862U 21055C   23342.61519379  .00001439  00000-0  16740-3 0  9994
2 48862  35.0733  55.0333 0073869 342.1330  17.6782 14.83445536134045
YAOGAN-30 AC
1 48863U 21055D   23343.13798616  .00002257  00000-0  21209-3 0  9991
2 48863  34.9980 329.1571 0002910  82.5440 277.5596 14.93649387134651
TIANQI-14
1 48864U 21055E   23343.10380455  .00003615  00000-0  31434-3 0  9997
2 48864  35.0041 315.3258 0006547 168.1250 191.9611 14.96491495134847
COSMOS 2550
1 48865U 21056A   23343.16277753  .00005869  00000-0  18404-3 0  9996
2 48865  67.1437   6.2146 0008336 269.9043  90.1157 15.33835513137486
BRIK-II
1 48876U 21058F   23342.82207362  .00006726  00000-0  23899-3 0  9998
2 48876  60.6737 120.9179 0014988 180.3101 179.7982 15.29987052135726
HALO-NET FF
1 48877U 21058G   23326.06658069  .07245851  98126-5  15262-2 0  9997
2 48877  60.6668 137.9261 0006884 291.8219  68.2186 16.30315818133997
GUNSMOKE-J 4
1 48878U 21058H   23342.54978023  .00061902  00000-0  90017-3 0  9991
2 48878  60.6783  97.6304 0004562 161.1175 199.0098 15.55340576136114
STARLINK-3003
1 48879U 21059A   23342.33417531  .00006679  00000-0  52398-3 0  9992
2 48879  97.6587 104.2486 0001737 100.4468 259.6952 15.01270546135420
STARLINK-3004
1 48880U 21059B   23342.33201069  .00004985  00000-0  39244-3 0  9994
2 48880  97.6587 104.2270 0000969  89.7038 270.4297 15.01262797135423
STARLINK-3005
1 48881U 21059C   23342.32534517  .00002974  00000-0  23602-3 0  9998
2 48881  97.6582 104.1653 0000420 272.3387  87.7789 15.01263930135427
SPACEBEE-100
1 48883U 21059E   23342.35579015  .00062556  00000-0  99156-3 0  9994
2 48883  97.6065 125.8953 0003893 337.4987  22.6094 15.53186639136193
